*******************************************************************************
Ephemeris / WWW_USER Mon Mar 24 08:50:26 2025 Pasadena, USA      / Horizons    
*******************************************************************************
Target body name: (2018 PU7)                      {source: JPL#13}
Center body name: Earth (399)                     {source: DE441}
Center-site name: Mauna Kea
*******************************************************************************
Start time      : A.D. 2018-Dec-06 03:52:00.0000 UT      
Stop  time      : A.D. 2018-Dec-06 16:33:00.0000 UT      
Step-size       : 1 minutes
*******************************************************************************
Target pole/equ : undefined
Target radii    : undefined                                                    
Center geodetic : 204.5278, 19.8260847, 4.21024   {E-lon(deg),Lat(deg),Alt(km)}
Center cylindric: 204.5278, 6006.35451, 2151.0229 {E-lon(deg),Dxy(km),Dz(km)}
Center pole/equ : ITRF93                          {East-longitude positive}
Center radii    : 6378.137, 6378.137, 6356.752 km {Equator_a, b, pole_c}       
Target primary  : Sun
Vis. interferer : MOON (R_eq= 1737.400) km        {source: DE441}
Rel. light bend : Sun                             {source: DE441}
Rel. lght bnd GM: 1.3271E+11 km^3/s^2                                          
Small-body perts: Yes                             {source: SB441-N16}
Atmos refraction: NO (AIRLESS)
RA format       : HMS
Time format     : CAL 
Calendar mode   : Mixed Julian/Gregorian
RTS-only print  : NO       
EOP file        : eop.250321.p250617                                           
EOP coverage    : DATA-BASED 1962-JAN-20 TO 2025-MAR-21. PREDICTS-> 2025-JUN-16
Units conversion: 1 au= 149597870.700 km, c= 299792.458 km/s, 1 day= 86400.0 s 
Table cut-offs 1: Elevation (-90.0deg=NO ),Airmass (>38.000=NO), Daylight (YES)
Table cut-offs 2: Solar elongation (  0.0,180.0=NO ),Local Hour Angle( 0.0=NO )
Table cut-offs 3: RA/DEC angular rate (     0.0=NO )                           
*******************************************************************************
Initial IAU76/J2000 heliocentric ecliptic osculating elements (au, days, deg.):
  EPOCH=  2458344.5 ! 2018-Aug-14.00 (TDB)         Residual RMS= .35253        
   EC= .5418411610879256   QR= .9908981152950816   TP= 2458306.0483912583      
   OM= 307.3200871504195   W=  329.2166965634538   IN= 6.906215163822786       
  Equivalent ICRF heliocentric cartesian coordinates (au, au/d):
   X= 8.533350742151261E-01  Y=-6.504796009993946E-01  Z=-2.480927258064065E-01
  VX= 1.615085148536055E-02 VY= 9.661045842052620E-03 VZ= 6.810490395822813E-03
Asteroid physical parameters (km, seconds, rotational period in hours):        
   GM= n.a.                RAD= n.a.               ROTPER= n.a.                
   H= 23.4                 G= .150                 B-V= n.a.                   
                           ALBEDO= n.a.            STYP= n.a.                  
*******************************************************************************
 Date__(UT)__HR:MN     R.A._________(ICRF)_________DEC
******************************************************
$$SOE
 2018-Dec-06 16:10 Nm  23 38 39.276751 +07 42 41.21894
 2018-Dec-06 16:11 Nm  23 38 39.338947 +07 42 41.41965
 2018-Dec-06 16:12 Nm  23 38 39.401144 +07 42 41.62038
 2018-Dec-06 16:13 Nm  23 38 39.463343 +07 42 41.82113
 2018-Dec-06 16:14 Nm  23 38 39.525543 +07 42 42.02190
 2018-Dec-06 16:15 Nm  23 38 39.587745 +07 42 42.22268
 2018-Dec-06 16:16 Nm  23 38 39.649948 +07 42 42.42348
 2018-Dec-06 16:17 Nm  23 38 39.712153 +07 42 42.62430
 2018-Dec-06 16:18 Nm  23 38 39.774360 +07 42 42.82513
 2018-Dec-06 16:19 Nm  23 38 39.836567 +07 42 43.02598
 2018-Dec-06 16:20 Cm  23 38 39.898777 +07 42 43.22685
 2018-Dec-06 16:21 Cm  23 38 39.960987 +07 42 43.42774
 2018-Dec-06 16:22 Cm  23 38 40.023199 +07 42 43.62865
 2018-Dec-06 16:23 Cm  23 38 40.085413 +07 42 43.82957
 2018-Dec-06 16:24 Cm  23 38 40.147627 +07 42 44.03051
 2018-Dec-06 16:25 Cm  23 38 40.209843 +07 42 44.23147
 2018-Dec-06 16:26 Cm  23 38 40.272061 +07 42 44.43244
 2018-Dec-06 16:27 Cm  23 38 40.334279 +07 42 44.63343
 2018-Dec-06 16:28 Cm  23 38 40.396498 +07 42 44.83444
 2018-Dec-06 16:29 Cm  23 38 40.458719 +07 42 45.03547
 2018-Dec-06 16:30 Cm  23 38 40.520941 +07 42 45.23652
 2018-Dec-06 16:31 Cm  23 38 40.583163 +07 42 45.43758
 2018-Dec-06 16:32 Cm  23 38 40.645387 +07 42 45.63866
 2018-Dec-06 16:33 Cm  23 38 40.707612 +07 42 45.83976
